[{"OBJECT_NAME":"STARLINK-33689","OBJECT_ID":"2025-057R","EPOCH":"2025-08-04T08:40:07.597056","MEAN_MOTION":15.27595027,"ECCENTRICITY":0.0001829,"INCLINATION":43.0016,"RA_OF_ASC_NODE":177.8793,"ARG_OF_PERICENTER":282.3519,"MEAN_ANOMALY":77.7128,"EPHEMERIS_TYPE":0,"CLASSIFICATION_TYPE":"U","NORAD_CAT_ID":63322,"ELEMENT_SET_NO":999,"REV_AT_EPOCH":2254,"BSTAR":0.00063286,"MEAN_MOTION_DOT":0.00017202,"MEAN_MOTION_DDOT":0},{"OBJECT_NAME":"STARLINK-33607","OBJECT_ID":"2025-057S","EPOCH":"2025-08-04T13:54:05.375232","MEAN_MOTION":15.27586842,"ECCENTRICITY":0.0001053,"INCLINATION":42.9975,"RA_OF_ASC_NODE":176.9378,"ARG_OF_PERICENTER":252.8363,"MEAN_ANOMALY":107.2373,"EPHEMERIS_TYPE":0,"CLASSIFICATION_TYPE":"U","NORAD_CAT_ID":63323,"ELEMENT_SET_NO":999,"REV_AT_EPOCH":2253,"BSTAR":0.00072735,"MEAN_MOTION_DOT":0.00019811,"MEAN_MOTION_DDOT":0},{"OBJECT_NAME":"STARLINK-33619","OBJECT_ID":"2025-057T","EPOCH":"2025-08-04T14:43:48.268704","MEAN_MOTION":15.27583188,"ECCENTRICITY":0.0001327,"INCLINATION":43.0028,"RA_OF_ASC_NODE":176.3266,"ARG_OF_PERICENTER":279.2558,"MEAN_ANOMALY":80.8144,"EPHEMERIS_TYPE":0,"CLASSIFICATION_TYPE":"U","NORAD_CAT_ID":63324,"ELEMENT_SET_NO":999,"REV_AT_EPOCH":2258,"BSTAR":0.00076838,"MEAN_MOTION_DOT":0.00020944,"MEAN_MOTION_DDOT":0},{"OBJECT_NAME":"STARLINK-33612","OBJECT_ID":"2025-057U","EPOCH":"2025-08-04T08:12:35.267904","MEAN_MOTION":15.27587211,"ECCENTRICITY":0.0001279,"INCLINATION":43.0001,"RA_OF_ASC_NODE":178.5985,"ARG_OF_PERICENTER":267.45,"MEAN_ANOMALY":92.6205,"EPHEMERIS_TYPE":0,"CLASSIFICATION_TYPE":"U","NORAD_CAT_ID":63325,"ELEMENT_SET_NO":999,"REV_AT_EPOCH":2253,"BSTAR":0.00057523,"MEAN_MOTION_DOT":0.00015604,"MEAN_MOTION_DDOT":0},{"OBJECT_NAME":"STARLINK-33672","OBJECT_ID":"2025-057V","EPOCH":"2025-08-04T08:49:22.806048","MEAN_MOTION":15.27603614,"ECCENTRICITY":8.69e-5,"INCLINATION":42.9976,"RA_OF_ASC_NODE":177.9106,"ARG_OF_PERICENTER":272.6147,"MEAN_ANOMALY":87.4605,"EPHEMERIS_TYPE":0,"CLASSIFICATION_TYPE":"U","NORAD_CAT_ID":63326,"ELEMENT_SET_NO":999,"REV_AT_EPOCH":2254,"BSTAR":0.00081192,"MEAN_MOTION_DOT":0.00022163,"MEAN_MOTION_DDOT":0},{"OBJECT_NAME":"STARLINK-33625","OBJECT_ID":"2025-057W","EPOCH":"2025-08-04T14:00:01.999872","MEAN_MOTION":15.27589954,"ECCENTRICITY":0.0002068,"INCLINATION":43.0001,"RA_OF_ASC_NODE":169.3425,"ARG_OF_PERICENTER":260.1456,"MEAN_ANOMALY":33.3389,"EPHEMERIS_TYPE":0,"CLASSIFICATION_TYPE":"U","NORAD_CAT_ID":63327,"ELEMENT_SET_NO":999,"REV_AT_EPOCH":592,"BSTAR":-0.00099163,"MEAN_MOTION_DOT":-0.00027459,"MEAN_MOTION_DDOT":0},{"OBJECT_NAME":"STARLINK-33699","OBJECT_ID":"2025-057X","EPOCH":"2025-08-04T06:10:00.920640","MEAN_MOTION":15.27591253,"ECCENTRICITY":2.66e-5,"INCLINATION":42.9967,"RA_OF_ASC_NODE":171.0329,"ARG_OF_PERICENTER":243.0176,"MEAN_ANOMALY":117.0649,"EPHEMERIS_TYPE":0,"CLASSIFICATION_TYPE":"U","NORAD_CAT_ID":63328,"ELEMENT_SET_NO":999,"REV_AT_EPOCH":2257,"BSTAR":0.001088,"MEAN_MOTION_DOT":0.00029809,"MEAN_MOTION_DDOT":0},{"OBJECT_NAME":"STARLINK-33674","OBJECT_ID":"2025-057Y","EPOCH":"2025-08-04T14:05:09.659040","MEAN_MOTION":15.27584098,"ECCENTRICITY":9.59e-5,"INCLINATION":42.998,"RA_OF_ASC_NODE":176.9893,"ARG_OF_PERICENTER":264.4263,"MEAN_ANOMALY":95.648,"EPHEMERIS_TYPE":0,"CLASSIFICATION_TYPE":"U","NORAD_CAT_ID":63329,"ELEMENT_SET_NO":999,"REV_AT_EPOCH":2257,"BSTAR":0.00087477,"MEAN_MOTION_DOT":0.00023891,"MEAN_MOTION_DDOT":0},{"OBJECT_NAME":"STARLINK-32840","OBJECT_ID":"2025-063A","EPOCH":"2025-08-04T01:46:25.025664","MEAN_MOTION":15.39626506,"ECCENTRICITY":0.0002141,"INCLINATION":53.1525,"RA_OF_ASC_NODE":347.3979,"ARG_OF_PERICENTER":81.0959,"MEAN_ANOMALY":279.0288,"EPHEMERIS_TYPE":0,"CLASSIFICATION_TYPE":"U","NORAD_CAT_ID":63363,"ELEMENT_SET_NO":999,"REV_AT_EPOCH":2136,"BSTAR":0.00077375,"MEAN_MOTION_DOT":0.00030682,"MEAN_MOTION_DDOT":0},{"OBJECT_NAME":"STARLINK-32543","OBJECT_ID":"2025-063B","EPOCH":"2025-08-04T14:53:44.006208","MEAN_MOTION":15.39628532,"ECCENTRICITY":3.2e-5,"INCLINATION":53.1644,"RA_OF_ASC_NODE":344.4068,"ARG_OF_PERICENTER":352.8798,"MEAN_ANOMALY":7.2202,"EPHEMERIS_TYPE":0,"CLASSIFICATION_TYPE":"U","NORAD_CAT_ID":63364,"ELEMENT_SET_NO":999,"REV_AT_EPOCH":2146,"BSTAR":0.0011716,"MEAN_MOTION_DOT":0.00046764,"MEAN_MOTION_DDOT":0},{"OBJECT_NAME":"STARLINK-33741","OBJECT_ID":"2025-063C","EPOCH":"2025-08-04T15:14:15.895680","MEAN_MOTION":15.39602058,"ECCENTRICITY":0.0001689,"INCLINATION":53.159,"RA_OF_ASC_NODE":344.4846,"ARG_OF_PERICENTER":96.5961,"MEAN_ANOMALY":263.5236,"EPHEMERIS_TYPE":0,"CLASSIFICATION_TYPE":"U","NORAD_CAT_ID":63365,"ELEMENT_SET_NO":999,"REV_AT_EPOCH":2147,"BSTAR":0.0017281,"MEAN_MOTION_DOT":0.00069313,"MEAN_MOTION_DDOT":0},{"OBJECT_NAME":"STARLINK-33742","OBJECT_ID":"2025-063D","EPOCH":"2025-08-04T14:54:12.077568","MEAN_MOTION":15.39631227,"ECCENTRICITY":4.99e-5,"INCLINATION":53.1634,"RA_OF_ASC_NODE":344.3985,"ARG_OF_PERICENTER":14.1912,"MEAN_ANOMALY":345.9107,"EPHEMERIS_TYPE":0,"CLASSIFICATION_TYPE":"U","NORAD_CAT_ID":63366,"ELEMENT_SET_NO":999,"REV_AT_EPOCH":2142,"BSTAR":0.00068555,"MEAN_MOTION_DOT":0.0002713,"MEAN_MOTION_DDOT":0},{"OBJECT_NAME":"STARLINK-33734","OBJECT_ID":"2025-063E","EPOCH":"2025-08-04T08:29:56.716224","MEAN_MOTION":15.30230482,"ECCENTRICITY":0.0002418,"INCLINATION":53.1558,"RA_OF_ASC_NODE":351.9461,"ARG_OF_PERICENTER":77.1939,"MEAN_ANOMALY":282.9332,"EPHEMERIS_TYPE":0,"CLASSIFICATION_TYPE":"U","NORAD_CAT_ID":63367,"ELEMENT_SET_NO":999,"REV_AT_EPOCH":2129,"BSTAR":0.0010666,"MEAN_MOTION_DOT":0.00031395,"MEAN_MOTION_DDOT":0},{"OBJECT_NAME":"STARLINK-33578","OBJECT_ID":"2025-063F","EPOCH":"2025-08-04T08:00:47.836800","MEAN_MOTION":15.39661701,"ECCENTRICITY":0.0001052,"INCLINATION":53.1641,"RA_OF_ASC_NODE":346.1623,"ARG_OF_PERICENTER":230.4521,"MEAN_ANOMALY":129.6391,"EPHEMERIS_TYPE":0,"CLASSIFICATION_TYPE":"U","NORAD_CAT_ID":63368,"ELEMENT_SET_NO":999,"REV_AT_EPOCH":2137,"BSTAR":0.001075,"MEAN_MOTION_DOT":0.00042901,"MEAN_MOTION_DDOT":0},{"OBJECT_NAME":"STARLINK-33626","OBJECT_ID":"2025-063G","EPOCH":"2025-08-03T08:44:42.549504","MEAN_MOTION":15.39644791,"ECCENTRICITY":0.0001624,"INCLINATION":53.156,"RA_OF_ASC_NODE":350.0621,"ARG_OF_PERICENTER":94.6428,"MEAN_ANOMALY":265.4763,"EPHEMERIS_TYPE":0,"CLASSIFICATION_TYPE":"U","NORAD_CAT_ID":63369,"ELEMENT_SET_NO":999,"REV_AT_EPOCH":2123,"BSTAR":0.0012651,"MEAN_MOTION_DOT":0.00050582,"MEAN_MOTION_DDOT":0},{"OBJECT_NAME":"STARLINK-33657","OBJECT_ID":"2025-063H","EPOCH":"2025-08-04T15:13:47.408736","MEAN_MOTION":15.39619305,"ECCENTRICITY":0.0001179,"INCLINATION":53.1596,"RA_OF_ASC_NODE":344.4828,"ARG_OF_PERICENTER":86.9337,"MEAN_ANOMALY":273.1803,"EPHEMERIS_TYPE":0,"CLASSIFICATION_TYPE":"U","NORAD_CAT_ID":63370,"ELEMENT_SET_NO":999,"REV_AT_EPOCH":2142,"BSTAR":0.001125,"MEAN_MOTION_DOT":0.00044863,"MEAN_MOTION_DDOT":0},{"OBJECT_NAME":"STARLINK-33648","OBJECT_ID":"2025-063J","EPOCH":"2025-08-04T12:26:53.450880","MEAN_MOTION":15.39643334,"ECCENTRICITY":0.0001075,"INCLINATION":53.1581,"RA_OF_ASC_NODE":345.1782,"ARG_OF_PERICENTER":60.2325,"MEAN_ANOMALY":299.8787,"EPHEMERIS_TYPE":0,"CLASSIFICATION_TYPE":"U","NORAD_CAT_ID":63371,"ELEMENT_SET_NO":999,"REV_AT_EPOCH":2145,"BSTAR":0.00053257,"MEAN_MOTION_DOT":0.00020978,"MEAN_MOTION_DDOT":0},{"OBJECT_NAME":"STARLINK-33614","OBJECT_ID":"2025-063K","EPOCH":"2025-08-04T15:00:53.473824","MEAN_MOTION":15.39630646,"ECCENTRICITY":0.0001398,"INCLINATION":53.1591,"RA_OF_ASC_NODE":344.4259,"ARG_OF_PERICENTER":86.1017,"MEAN_ANOMALY":274.0147,"EPHEMERIS_TYPE":0,"CLASSIFICATION_TYPE":"U","NORAD_CAT_ID":63372,"ELEMENT_SET_NO":999,"REV_AT_EPOCH":2147,"BSTAR":0.0012233,"MEAN_MOTION_DOT":0.00048863,"MEAN_MOTION_DDOT":0},{"OBJECT_NAME":"STARLINK-33617","OBJECT_ID":"2025-063L","EPOCH":"2025-08-04T12:27:13.965696","MEAN_MOTION":15.39623972,"ECCENTRICITY":0.0001649,"INCLINATION":53.159,"RA_OF_ASC_NODE":344.4694,"ARG_OF_PERICENTER":73.1541,"MEAN_ANOMALY":286.9645,"EPHEMERIS_TYPE":0,"CLASSIFICATION_TYPE":"U","NORAD_CAT_ID":63373,"ELEMENT_SET_NO":999,"REV_AT_EPOCH":2141,"BSTAR":0.00016127,"MEAN_MOTION_DOT":6.057e-5,"MEAN_MOTION_DDOT":0},{"OBJECT_NAME":"STARLINK-33618","OBJECT_ID":"2025-063M","EPOCH":"2025-08-04T12:33:55.064736","MEAN_MOTION":15.3963719,"ECCENTRICITY":9.95e-5,"INCLINATION":53.1583,"RA_OF_ASC_NODE":344.4945,"ARG_OF_PERICENTER":76.7898,"MEAN_ANOMALY":283.3218,"EPHEMERIS_TYPE":0,"CLASSIFICATION_TYPE":"U","NORAD_CAT_ID":63374,"ELEMENT_SET_NO":999,"REV_AT_EPOCH":2146,"BSTAR":0.0010294,"MEAN_MOTION_DOT":0.0004102,"MEAN_MOTION_DDOT":0},{"OBJECT_NAME":"STARLINK-33621","OBJECT_ID":"2025-063N","EPOCH":"2025-08-04T02:13:01.827264","MEAN_MOTION":15.39661643,"ECCENTRICITY":0.0001185,"INCLINATION":53.157,"RA_OF_ASC_NODE":346.7833,"ARG_OF_PERICENTER":97.1572,"MEAN_ANOMALY":262.9568,"EPHEMERIS_TYPE":0,"CLASSIFICATION_TYPE":"U","NORAD_CAT_ID":63375,"ELEMENT_SET_NO":999,"REV_AT_EPOCH":2134,"BSTAR":0.0010468,"MEAN_MOTION_DOT":0.00041759,"MEAN_MOTION_DDOT":0},{"OBJECT_NAME":"STARLINK-33539","OBJECT_ID":"2025-063P","EPOCH":"2025-08-04T02:24:22.289472","MEAN_MOTION":15.30201553,"ECCENTRICITY":0.0001143,"INCLINATION":53.1617,"RA_OF_ASC_NODE":353.2062,"ARG_OF_PERICENTER":91.8198,"MEAN_ANOMALY":268.2934,"EPHEMERIS_TYPE":0,"CLASSIFICATION_TYPE":"U","NORAD_CAT_ID":63376,"ELEMENT_SET_NO":999,"REV_AT_EPOCH":2125,"BSTAR":0.0007982,"MEAN_MOTION_DOT":0.00023357,"MEAN_MOTION_DDOT":0},{"OBJECT_NAME":"STARLINK-33634","OBJECT_ID":"2025-063Q","EPOCH":"2025-08-04T01:59:38.207904","MEAN_MOTION":15.39658249,"ECCENTRICITY":3.07e-5,"INCLINATION":53.1616,"RA_OF_ASC_NODE":346.7242,"ARG_OF_PERICENTER":121.4741,"MEAN_ANOMALY":238.6294,"EPHEMERIS_TYPE":0,"CLASSIFICATION_TYPE":"U","NORAD_CAT_ID":63377,"ELEMENT_SET_NO":999,"REV_AT_EPOCH":2139,"BSTAR":0.00098486,"MEAN_MOTION_DOT":0.00039247,"MEAN_MOTION_DDOT":0}]
